[{"OBJECT_NAME":"STARLINK-1635","OBJECT_ID":"2020-057BH","EPOCH":"2026-03-10T00:00:02.999808","MEAN_MOTION":15.60509087,"ECCENTRICITY":0.00033523,"INCLINATION":53.0441,"RA_OF_ASC_NODE":256.1073,"ARG_OF_PERICENTER":0.6018,"MEAN_ANOMALY":192.2172,"EPHEMERIS_TYPE":0,"CLASSIFICATION_TYPE":"U","NORAD_CAT_ID":46172,"ELEMENT_SET_NO":999,"REV_AT_EPOCH":593,"BSTAR":0.0025741102,"MEAN_MOTION_DOT":0.0022161,"MEAN_MOTION_DDOT":0},{"OBJECT_NAME":"COSMOS 803","OBJECT_ID":"1976-014A","EPOCH":"2026-03-09T23:17:47.855328","MEAN_MOTION":15.61335179,"ECCENTRICITY":0.00020256,"INCLINATION":65.8372,"RA_OF_ASC_NODE":311.9336,"ARG_OF_PERICENTER":211.5749,"MEAN_ANOMALY":148.5287,"EPHEMERIS_TYPE":0,"CLASSIFICATION_TYPE":"U","NORAD_CAT_ID":8688,"ELEMENT_SET_NO":999,"REV_AT_EPOCH":77635,"BSTAR":0.00015550642,"MEAN_MOTION_DOT":0.00013037,"MEAN_MOTION_DDOT":0}]
